personId,name,email,dob,address1,address2,city,state,zip,majorIds,bedId
7b1fb398-72d7-421e-808c-631a427bfbc4,David Taylor,david.taylor@example.com,1992-08-15,767 Walnut St,, Georgetown, OH,,"2c6e4248-da4d-4cb3-ac58-3cd04aa203fa,c8e9582b-d7bd-48cb-9cab-9f953712e952",
99a4b233-2804-420b-b757-039f0f3cceb7,Jane Wilson,jane.wilson@example.com,1969-08-20,168 Birch St,, Riverside, FL,,"49f57722-52fb-47b6-8e1e-54de177e0d19,e00c66ff-cb22-45b1-a5e8-8b3cde249016,f89ddd78-e74e-469c-8808-241bd8c36f67,9a1dc165-a7e3-4d94-96b3-aed7943cd257,c6f0e3ea-fc4a-4768-a155-f0bf0b943717",
cc3b2df2-a593-493e-af82-1f0d11c7439b,John Brown,john.brown@example.com,1967-12-14,726 Maple St,, Fairview, PA,,,a32b34cf-0356-4739-ab43-4a9ed70818f8
cb669177-4020-4284-a3dc-9a0c312411d4,Linda Taylor,linda.taylor@example.com,1983-12-04,171 Spruce St,, Riverside, TX,,"37b765f0-fc71-4c9c-838b-f3a5ce0706ff,8402b4cd-a049-4ae7-8649-16af0c4c8c62,5538f94c-9d38-4c6c-ab29-0987d27ec313,52e4d490-31bd-48ea-ab9b-8f9eaf720b12",01f250f6-a3a3-492b-ba52-3f53f4483316
ba1443a2-dfeb-441b-b41d-078b36416704,Sarah Doe,sarah.doe@example.com,1986-08-31,987 Walnut St,, Georgetown, OH,,"4d0b9e50-43d1-4da0-af2b-97d510bab9e2,f6cf2da9-277c-4780-8c18-2a4727d35f64,edca0a28-476b-4782-86be-a06806d87ab8,b43b2475-66e9-49df-b826-4dbb0bb15b8b,6dfeb9a0-918b-4038-ae4f-63ab374b9311,049d0ea9-2055-46a4-b821-0cbf6e36e4d5,af428f7f-7d22-4949-924b-37b9c13140fb,b12e86e4-dc4d-49cb-8ec3-b0c9f7f23b26,bd5df5b0-28d6-45d5-8637-31903ae85330,589319dd-8b62-4842-bb7a-855eef1f8d6e,37b5c1f9-c15a-4947-b64d-025dc64c5241,d2d40201-0152-4e55-bf95-406c1f66295b,62f9fcfb-92d6-4bc8-96ff-e8847c7b27ae",f8ef5ea9-e2bf-4eda-9d7a-c7cdf30dc649
0fb01c62-21b7-43fc-a631-d2fcdd949e0a,Alice Williams,alice.williams@example.com,1958-09-06,965 Birch St,, Greenville, NY,,"39af2a17-08ce-4282-8dd0-de4efe79980f,ce83ec69-0901-4423-87f6-92734cc8feb2",
9bcb32b8-234d-42e2-9dd9-c49399ab95f4,John Moore,john.moore@example.com,1987-08-14,145 Spruce St,, Madison, TX,,"4ae8186a-1c4d-4b5e-8e7e-385e8b3e9c79,fcda77f1-d71f-4cbe-bb5c-fb12877aec40",
7c94c883-20d4-46ab-a81d-3e2f89e1b195,Alice Davis,alice.davis@example.com,1990-11-08,487 Pine St,, Springfield, CA,,,5de80aef-9ee8-47b1-942f-1b900c39b8e3
82a1e50c-dfd2-4190-a043-fa0013e00a57,Emily Brown,emily.brown@example.com,1988-04-15,322 Cedar St,, Salem, FL,,"6b796d48-625b-4acf-96db-141d2e7d7b4b,e6f83c77-1538-4fec-934c-6a4ec6617268",7e9f39d1-4385-495b-b485-5bceff951057
da88da77-1d78-4cc0-bc2f-80be282e8ce6,John Smith,john.smith@example.com,1988-06-27,860 Cedar St,, Madison, PA,,,6844029c-7429-44c5-b281-d0320f27618a
f1005104-0c61-4427-80ad-fa91db012adc,Bob Doe,bob.doe@example.com,1976-09-01,284 Elm St,, Georgetown, PA,,"19a8bee2-7566-411a-9919-61d44ccc81ef,c782f52b-d7ac-47f5-836a-376e4fccf31f,e4aa68ec-6374-48d4-a36d-8ca39ac807a2,cabf5871-d0d1-43aa-a1e0-7b054ea1f92a,058ec2ea-9361-4a0a-a0b1-c81e99f2349a,1f2a78f5-deae-438d-be76-6d733a7dac87",
0fcb5492-5b97-44b2-bd87-395e2c16c0d7,Jane Brown,jane.brown@example.com,1976-12-16,255 Oak St,, Madison, TX,,"b33ae65d-523e-48c6-b10e-59346e1c6523,c782f52b-d7ac-47f5-836a-376e4fccf31f,edca0a28-476b-4782-86be-a06806d87ab8,4e64e115-2f29-4046-95c6-3f34c14feb83,cabf5871-d0d1-43aa-a1e0-7b054ea1f92a,b12e86e4-dc4d-49cb-8ec3-b0c9f7f23b26,2ab329ca-9f50-4c70-9698-f44934cf4b69,1f2a78f5-deae-438d-be76-6d733a7dac87,62f9fcfb-92d6-4bc8-96ff-e8847c7b27ae",
4632ced6-53f0-4eea-995d-2496d19a806c,Sarah Smith,sarah.smith@example.com,1981-06-28,189 Pine St,, Fairview, PA,,,
78383456-9740-463e-8058-cd49381b0b81,James Davis,james.davis@example.com,1966-04-16,689 Oak St,, Fairview, IL,,"38b9874d-dd51-433a-bea9-2ef3ec79cb21,37979873-7c28-4b44-83ee-438c3e6810e9,5d92edf2-5248-4363-8e50-f18ad6a67a8c,e3ae6951-0a5b-40c4-8b20-fd8b9ce4cecf,e988d274-0abb-4d30-86fd-65f7e0f6b057,b6f11273-e674-4c30-afa1-7ee62c1abb4b,4ad06de7-beaf-454c-aeda-59316f4a641c,cc5f8133-74b9-43cc-b15e-b159a78b93fd",
ae82afd8-fc74-4e1a-97b5-a4ab0312f053,Linda Brown,linda.brown@example.com,1994-03-08,538 Walnut St,, Greenville, OH,,,
d7f103c9-7070-4a31-9234-a53ad9a58300,David Miller,david.miller@example.com,1986-10-06,788 Spruce St,, Salem, OH,,"4fc222e3-9728-408a-b24b-171c919f81ea,7f5bc724-d171-406e-bf3b-cd9d868174f2,b32c172c-a1d5-4cc9-a1fc-f5f4b2365ea4",bc010d01-535b-44d9-a8e5-93ab9c98a026
65d6d385-ba86-450f-bc1b-c308944eb28c,John Williams,john.williams@example.com,1987-07-03,462 Cedar St,, Madison, TX,,"f6cf2da9-277c-4780-8c18-2a4727d35f64,c782f52b-d7ac-47f5-836a-376e4fccf31f,af428f7f-7d22-4949-924b-37b9c13140fb,cabf5871-d0d1-43aa-a1e0-7b054ea1f92a,d2d40201-0152-4e55-bf95-406c1f66295b,1f2a78f5-deae-438d-be76-6d733a7dac87",108af9fc-e263-4662-a637-3773d3355db8
c097be42-b137-4532-9b6b-fab2ed7be18d,John Davis,john.davis@example.com,1966-09-03,363 Elm St,, Greenville, OH,,"1e0ce7f9-cbf4-44c4-bfb7-725db39d17ea,49f57722-52fb-47b6-8e1e-54de177e0d19,edca0a28-476b-4782-86be-a06806d87ab8,cb7207d7-79d6-497f-a7e6-ceebd62576db,9cbfac3c-fb8a-4ebd-b677-c223a57ac329,dda17862-a51d-49f5-bc9f-b2caa7af10ef,f89ddd78-e74e-469c-8808-241bd8c36f67,b12e86e4-dc4d-49cb-8ec3-b0c9f7f23b26,bc618e46-adeb-4bfa-a8dc-9e7a3bbad058,d464054e-8f96-4d3d-b9d5-a40f34507b88,551cfc0c-5de9-4672-90a2-b0f5b644ed8c,c6f0e3ea-fc4a-4768-a155-f0bf0b943717,62f9fcfb-92d6-4bc8-96ff-e8847c7b27ae",
0851484b-c52e-4aee-a70b-db62043c7b92,Sarah Wilson,sarah.wilson@example.com,1996-08-13,436 Elm St,, Salem, FL,,"6dfeb9a0-918b-4038-ae4f-63ab374b9311,589319dd-8b62-4842-bb7a-855eef1f8d6e",3be41337-2781-4385-858e-d8ff593d383c
a5992ead-879e-4ed9-8cd4-97cce9a6856f,John Miller,john.miller@example.com,1952-01-24,271 Spruce St,, Georgetown, TX,,"f6cf2da9-277c-4780-8c18-2a4727d35f64,1eeb53c2-5e82-4c6a-a81f-bea4af78b2f8,3100982d-c037-4a3f-a3ed-83e66b248c8d,6b796d48-625b-4acf-96db-141d2e7d7b4b,af428f7f-7d22-4949-924b-37b9c13140fb,31a96803-e0b0-464c-b44c-14316de7195f,ebbcecbe-be84-4fb4-bb4e-6420356ebe5a,e6f83c77-1538-4fec-934c-6a4ec6617268,d2d40201-0152-4e55-bf95-406c1f66295b",b1e9bd7e-cc17-436d-8c89-54978874200c
64772f74-cda0-4fc1-8ece-d89d8cf621da,Emily Davis,emily.davis@example.com,1960-09-11,236 Pine St,, Madison, PA,,"38b9874d-dd51-433a-bea9-2ef3ec79cb21,ad1e7d8e-5114-413f-921d-a35552003ee4,c782f52b-d7ac-47f5-836a-376e4fccf31f,3100982d-c037-4a3f-a3ed-83e66b248c8d,e3ae6951-0a5b-40c4-8b20-fd8b9ce4cecf,c132b04e-83bd-4b24-8fe4-5a9a015e7c93,cabf5871-d0d1-43aa-a1e0-7b054ea1f92a,ebbcecbe-be84-4fb4-bb4e-6420356ebe5a,4ad06de7-beaf-454c-aeda-59316f4a641c,1e0b04ba-18d5-4ab9-a1e5-23449bbc4a0b,1f2a78f5-deae-438d-be76-6d733a7dac87",
cfda8cc4-0c45-47a0-ba16-13b9916424cc,James Moore,james.moore@example.com,1966-05-24,559 Oak St,, Fairview, IL,,"d3d06262-f539-4a05-9e71-6e6113e9529b,19a8bee2-7566-411a-9919-61d44ccc81ef,2390b2fb-f180-48d3-989d-5e359fdf867c,e00c66ff-cb22-45b1-a5e8-8b3cde249016,efbed11c-6828-4d9a-bdc3-ffadce27497e,e4aa68ec-6374-48d4-a36d-8ca39ac807a2,febd48e5-fa29-4288-94cf-a257e875bbc5,9a1dc165-a7e3-4d94-96b3-aed7943cd257,ab3572a8-144f-4148-9862-465bd9d7148b,058ec2ea-9361-4a0a-a0b1-c81e99f2349a,a680ecae-78a0-4d78-88cd-4f0163e7d4da",
f15909a1-9b5a-4726-9d91-0ac6470190cb,Sarah Moore,sarah.moore@example.com,1974-09-02,591 Birch St,, Georgetown, OH,,"12c5d420-9bbc-455d-9794-7780bc5fea5b,c782f52b-d7ac-47f5-836a-376e4fccf31f,036ab592-da37-4aac-ac4b-3a2eb132eb76,cabf5871-d0d1-43aa-a1e0-7b054ea1f92a,91d3ffda-02df-4108-a302-e3764e021ccf,1f2a78f5-deae-438d-be76-6d733a7dac87",3f841a45-7715-416d-ad00-9b458ab6fdbf
b9caf4d6-d2a6-41e4-9303-38e10bd88b4f,Michael Brown,michael.brown@example.com,1961-08-17,335 Pine St,, Riverside, NY,,"f6cf2da9-277c-4780-8c18-2a4727d35f64,c782f52b-d7ac-47f5-836a-376e4fccf31f,af428f7f-7d22-4949-924b-37b9c13140fb,cabf5871-d0d1-43aa-a1e0-7b054ea1f92a,d2d40201-0152-4e55-bf95-406c1f66295b,1f2a78f5-deae-438d-be76-6d733a7dac87",80a10d36-7718-40c6-86ef-ee894f021a73
e92704a6-7f85-4d98-b86a-720fea990af3,David Davis,david.davis@example.com,1988-05-02,609 Oak St,, Greenville, IL,,,
4f75e6ca-533d-4a93-b273-3d7db4f823e4,Bob Smith,bob.smith@example.com,1965-10-03,521 Spruce St,, Springfield, FL,,"2390b2fb-f180-48d3-989d-5e359fdf867c,37979873-7c28-4b44-83ee-438c3e6810e9,1e0ce7f9-cbf4-44c4-bfb7-725db39d17ea,febd48e5-fa29-4288-94cf-a257e875bbc5,e988d274-0abb-4d30-86fd-65f7e0f6b057,dda17862-a51d-49f5-bc9f-b2caa7af10ef,a680ecae-78a0-4d78-88cd-4f0163e7d4da,cc5f8133-74b9-43cc-b15e-b159a78b93fd,551cfc0c-5de9-4672-90a2-b0f5b644ed8c",655468a2-d6dc-4dd2-84ac-7f0002299386
c5da647a-2a32-4707-983a-76c102447e4e,James Williams,james.williams@example.com,1955-08-18,224 Oak St,, Riverside, OH,,"19a8bee2-7566-411a-9919-61d44ccc81ef,9dd4dfda-b0d2-4d4a-8642-a44db00f4a15,2c6e4248-da4d-4cb3-ac58-3cd04aa203fa,cb7207d7-79d6-497f-a7e6-ceebd62576db,e4aa68ec-6374-48d4-a36d-8ca39ac807a2,534a2149-3015-472c-9de1-5db9e0f6b43e,c8e9582b-d7bd-48cb-9cab-9f953712e952,bc618e46-adeb-4bfa-a8dc-9e7a3bbad058,058ec2ea-9361-4a0a-a0b1-c81e99f2349a,fe8da200-3e6c-4017-983e-19b5aff7e800",
b2857a4c-6b82-4f88-a91b-d8557456c226,David Brown,david.brown@example.com,1986-02-23,240 Elm St,, Springfield, TX,,"4d0b9e50-43d1-4da0-af2b-97d510bab9e2,37979873-7c28-4b44-83ee-438c3e6810e9,cb7207d7-79d6-497f-a7e6-ceebd62576db,6dfeb9a0-918b-4038-ae4f-63ab374b9311,049d0ea9-2055-46a4-b821-0cbf6e36e4d5,e988d274-0abb-4d30-86fd-65f7e0f6b057,bc618e46-adeb-4bfa-a8dc-9e7a3bbad058,589319dd-8b62-4842-bb7a-855eef1f8d6e,37b5c1f9-c15a-4947-b64d-025dc64c5241,cc5f8133-74b9-43cc-b15e-b159a78b93fd",
d54feca6-eb09-4381-ae61-e5c7da4fba7a,Sarah Davis,sarah.davis@example.com,1954-02-04,189 Elm St,, Springfield, CA,,"b33ae65d-523e-48c6-b10e-59346e1c6523,49150744-aac2-44f9-8ca0-05ae90757bac,4e64e115-2f29-4046-95c6-3f34c14feb83,f5b20856-42b4-48bd-93d9-fbe2712c9e55,2ab329ca-9f50-4c70-9698-f44934cf4b69",
29468257-12ce-45da-a17c-c69e776c7e69,Emily Moore,emily.moore@example.com,1957-05-31,175 Walnut St,, Springfield, CA,,,
8078b4cf-c3e6-4cab-b5b0-731f3df79526,James Taylor,james.taylor@example.com,1954-10-24,253 Walnut St,, Georgetown, PA,,,
c958ef40-8765-4b9c-b0a3-da0deb8ec08b,Linda Doe,linda.doe@example.com,1988-09-29,743 Spruce St,, Springfield, IL,,"2c6e4248-da4d-4cb3-ac58-3cd04aa203fa,c8e9582b-d7bd-48cb-9cab-9f953712e952",b452029f-43b2-425a-85bb-659367b67a82
3ff52f27-5f8e-4767-b1cd-549f2f244cc5,Emily Taylor,emily.taylor@example.com,1997-01-09,286 Spruce St,, Salem, NY,,"d3d06262-f539-4a05-9e71-6e6113e9529b,dda33b53-0fff-4371-8a45-35a2192e86e8,f6cf2da9-277c-4780-8c18-2a4727d35f64,1eeb53c2-5e82-4c6a-a81f-bea4af78b2f8,b43b2475-66e9-49df-b826-4dbb0bb15b8b,efbed11c-6828-4d9a-bdc3-ffadce27497e,34c2e9da-d62c-4fdd-ad94-7befd2595222,af428f7f-7d22-4949-924b-37b9c13140fb,31a96803-e0b0-464c-b44c-14316de7195f,bd5df5b0-28d6-45d5-8637-31903ae85330,ab3572a8-144f-4148-9862-465bd9d7148b,9e9ca12c-4178-40b5-a715-f166244e3adb,d2d40201-0152-4e55-bf95-406c1f66295b",c2e2984c-72bb-4ebe-8798-25199bba2d3b
7039a8bd-5478-4626-969d-c42d5776650d,Alice Doe,alice.doe@example.com,1952-08-09,883 Spruce St,, Riverside, OH,,"4ff85e34-9da3-47f2-beee-ec6175d82186,450d53ce-7643-41e5-9d0d-b9d1eacead36",
951ce315-8792-4325-afa5-33fbea08b8c3,Bob Moore,bob.moore@example.com,1996-03-11,968 Pine St,, Salem, TX,,"4d0b9e50-43d1-4da0-af2b-97d510bab9e2,bcf5b4b8-c773-40a4-9ec1-9767753c0d44,049d0ea9-2055-46a4-b821-0cbf6e36e4d5,92ba9844-0c5e-4bfa-ad1c-ab41f8ac3d5e,37b5c1f9-c15a-4947-b64d-025dc64c5241",
97ab62bb-b25a-4474-86f8-4aaf35d8f6d6,Bob Williams,bob.williams@example.com,1969-08-28,656 Maple St,, Fairview, TX,,"4d0b9e50-43d1-4da0-af2b-97d510bab9e2,f6cf2da9-277c-4780-8c18-2a4727d35f64,2390b2fb-f180-48d3-989d-5e359fdf867c,f66e3050-2b7f-4d30-bc1e-f1c26d6a2aa2,bcf5b4b8-c773-40a4-9ec1-9767753c0d44,049d0ea9-2055-46a4-b821-0cbf6e36e4d5,af428f7f-7d22-4949-924b-37b9c13140fb,febd48e5-fa29-4288-94cf-a257e875bbc5,16f85a4c-9e5b-4f05-ac70-25acb3032c48,92ba9844-0c5e-4bfa-ad1c-ab41f8ac3d5e,37b5c1f9-c15a-4947-b64d-025dc64c5241,d2d40201-0152-4e55-bf95-406c1f66295b,a680ecae-78a0-4d78-88cd-4f0163e7d4da,d25284f4-c84e-48db-b41e-dc42085a55f9",ac531dfa-0db6-4fd7-a3f3-5d675de7c750
784ca0e6-694d-4d25-ba5d-c80178808874,Emily Wilson,emily.wilson@example.com,1991-01-05,992 Birch St,, Springfield, NY,,"dda33b53-0fff-4371-8a45-35a2192e86e8,ad1e7d8e-5114-413f-921d-a35552003ee4,e00c66ff-cb22-45b1-a5e8-8b3cde249016,e0bad25d-7fb1-4dd7-a0e8-a11b41dcd281,34c2e9da-d62c-4fdd-ad94-7befd2595222,c132b04e-83bd-4b24-8fe4-5a9a015e7c93,9a1dc165-a7e3-4d94-96b3-aed7943cd257,5e03ed8a-d9fb-4271-aa1d-73df523dcc57,9e9ca12c-4178-40b5-a715-f166244e3adb,1e0b04ba-18d5-4ab9-a1e5-23449bbc4a0b",95426303-c1af-44d1-bfcd-a9c011352b6c
40c6de4b-3d44-4c41-96dd-6cfca9f2bcc5,Bob Taylor,bob.taylor@example.com,1977-07-09,859 Pine St,, Fairview, FL,,"3c0ebd74-4105-4532-a321-39bc3d6ab3d8,ad1e7d8e-5114-413f-921d-a35552003ee4,49f57722-52fb-47b6-8e1e-54de177e0d19,edca0a28-476b-4782-86be-a06806d87ab8,37b765f0-fc71-4c9c-838b-f3a5ce0706ff,eac5b480-7e00-4d5e-add6-fc915fb2e8be,c132b04e-83bd-4b24-8fe4-5a9a015e7c93,f89ddd78-e74e-469c-8808-241bd8c36f67,b12e86e4-dc4d-49cb-8ec3-b0c9f7f23b26,5538f94c-9d38-4c6c-ab29-0987d27ec313,32a60bdd-f493-4c44-a9e2-e45c0209be5e,1e0b04ba-18d5-4ab9-a1e5-23449bbc4a0b,c6f0e3ea-fc4a-4768-a155-f0bf0b943717,62f9fcfb-92d6-4bc8-96ff-e8847c7b27ae",87a98948-0ce5-4f7c-9e91-1dbc6de875e0
114ac99a-b2e2-4da9-844b-0bc5b5d40ec6,Sarah Brown,sarah.brown@example.com,1975-11-03,177 Oak St,, Springfield, CA,,"2390b2fb-f180-48d3-989d-5e359fdf867c,ad1e7d8e-5114-413f-921d-a35552003ee4,3100982d-c037-4a3f-a3ed-83e66b248c8d,e0bad25d-7fb1-4dd7-a0e8-a11b41dcd281,febd48e5-fa29-4288-94cf-a257e875bbc5,c132b04e-83bd-4b24-8fe4-5a9a015e7c93,ebbcecbe-be84-4fb4-bb4e-6420356ebe5a,5e03ed8a-d9fb-4271-aa1d-73df523dcc57,a680ecae-78a0-4d78-88cd-4f0163e7d4da,1e0b04ba-18d5-4ab9-a1e5-23449bbc4a0b",
48d9bd03-4aa6-42ef-9d94-89ac6d706f31,Michael Moore,michael.moore@example.com,1982-05-05,983 Spruce St,, Georgetown, FL,,"2c4e188e-85c2-4366-b282-d70974be0631,2390b2fb-f180-48d3-989d-5e359fdf867c,ad1e7d8e-5114-413f-921d-a35552003ee4,e00c66ff-cb22-45b1-a5e8-8b3cde249016,b43b2475-66e9-49df-b826-4dbb0bb15b8b,d02446db-85a5-472f-be66-392204bff177,febd48e5-fa29-4288-94cf-a257e875bbc5,c132b04e-83bd-4b24-8fe4-5a9a015e7c93,9a1dc165-a7e3-4d94-96b3-aed7943cd257,bd5df5b0-28d6-45d5-8637-31903ae85330,e2e80629-cfb6-4daa-b56c-6795ccdc4e48,a680ecae-78a0-4d78-88cd-4f0163e7d4da,1e0b04ba-18d5-4ab9-a1e5-23449bbc4a0b",
9874f222-e125-4f87-a19a-d3863246c801,Jane Johnson,jane.johnson@example.com,1965-01-19,337 Walnut St,, Springfield, PA,,"12c5d420-9bbc-455d-9794-7780bc5fea5b,37979873-7c28-4b44-83ee-438c3e6810e9,5d92edf2-5248-4363-8e50-f18ad6a67a8c,036ab592-da37-4aac-ac4b-3a2eb132eb76,e988d274-0abb-4d30-86fd-65f7e0f6b057,b6f11273-e674-4c30-afa1-7ee62c1abb4b,91d3ffda-02df-4108-a302-e3764e021ccf,cc5f8133-74b9-43cc-b15e-b159a78b93fd",
7102ff6d-9774-4be3-a9dd-e400aa5b3313,Jane Davis,jane.davis@example.com,1959-03-23,862 Birch St,, Madison, OH,,"12c5d420-9bbc-455d-9794-7780bc5fea5b,49f57722-52fb-47b6-8e1e-54de177e0d19,036ab592-da37-4aac-ac4b-3a2eb132eb76,f89ddd78-e74e-469c-8808-241bd8c36f67,91d3ffda-02df-4108-a302-e3764e021ccf,c6f0e3ea-fc4a-4768-a155-f0bf0b943717",5c47cf06-129c-4b5a-9684-fc16ccb6e794
58e411a6-5607-4c9b-9b6d-c68d8fc8b4be,Linda Wilson,linda.wilson@example.com,1959-11-12,877 Walnut St,, Riverside, PA,,"edca0a28-476b-4782-86be-a06806d87ab8,8402b4cd-a049-4ae7-8649-16af0c4c8c62,b12e86e4-dc4d-49cb-8ec3-b0c9f7f23b26,52e4d490-31bd-48ea-ab9b-8f9eaf720b12,62f9fcfb-92d6-4bc8-96ff-e8847c7b27ae",
08515d01-e2e0-4f59-bc57-caa688304fe3,Emily Williams,emily.williams@example.com,1988-12-16,960 Walnut St,, Riverside, NY,,,
0d92bcb1-f7b2-4c94-875c-1c0c250f7aec,David Johnson,david.johnson@example.com,1983-04-03,952 Spruce St,, Greenville, FL,,"49150744-aac2-44f9-8ca0-05ae90757bac,2c6e4248-da4d-4cb3-ac58-3cd04aa203fa,f5b20856-42b4-48bd-93d9-fbe2712c9e55,c8e9582b-d7bd-48cb-9cab-9f953712e952",
f936e320-a908-49bc-8683-412711884553,John Taylor,john.taylor@example.com,1977-08-30,106 Birch St,, Madison, TX,,"38b9874d-dd51-433a-bea9-2ef3ec79cb21,4ae8186a-1c4d-4b5e-8e7e-385e8b3e9c79,e3ae6951-0a5b-40c4-8b20-fd8b9ce4cecf,fcda77f1-d71f-4cbe-bb5c-fb12877aec40,4ad06de7-beaf-454c-aeda-59316f4a641c",d9d0e1da-bc81-40b5-8038-9679c7895ed5
61bfeaa6-e7db-4c31-a5d3-bc175c78c27c,Michael Taylor,michael.taylor@example.com,1957-10-25,844 Oak St,, Fairview, NY,,"12c5d420-9bbc-455d-9794-7780bc5fea5b,1e0ce7f9-cbf4-44c4-bfb7-725db39d17ea,3100982d-c037-4a3f-a3ed-83e66b248c8d,cb7207d7-79d6-497f-a7e6-ceebd62576db,4ff85e34-9da3-47f2-beee-ec6175d82186,036ab592-da37-4aac-ac4b-3a2eb132eb76,dda17862-a51d-49f5-bc9f-b2caa7af10ef,ebbcecbe-be84-4fb4-bb4e-6420356ebe5a,bc618e46-adeb-4bfa-a8dc-9e7a3bbad058,450d53ce-7643-41e5-9d0d-b9d1eacead36,91d3ffda-02df-4108-a302-e3764e021ccf,551cfc0c-5de9-4672-90a2-b0f5b644ed8c",d26eecc5-5bf4-4bfc-8e72-a6043b8d0092
0d54122e-ce34-4bac-882c-1d9b1c5d1fc7,John Wilson,john.wilson@example.com,1988-11-03,545 Cedar St,, Greenville, PA,,"f6cf2da9-277c-4780-8c18-2a4727d35f64,2390b2fb-f180-48d3-989d-5e359fdf867c,37979873-7c28-4b44-83ee-438c3e6810e9,cb7207d7-79d6-497f-a7e6-ceebd62576db,af428f7f-7d22-4949-924b-37b9c13140fb,febd48e5-fa29-4288-94cf-a257e875bbc5,e988d274-0abb-4d30-86fd-65f7e0f6b057,bc618e46-adeb-4bfa-a8dc-9e7a3bbad058,d2d40201-0152-4e55-bf95-406c1f66295b,a680ecae-78a0-4d78-88cd-4f0163e7d4da,cc5f8133-74b9-43cc-b15e-b159a78b93fd",8b7d88ce-821c-4c27-8784-fea7977d432e
afce117e-f675-4c8c-b830-7d0624c35d40,Michael Smith,michael.smith@example.com,1966-05-18,970 Pine St,, Georgetown, OH,,"c782f52b-d7ac-47f5-836a-376e4fccf31f,39af2a17-08ce-4282-8dd0-de4efe79980f,37b765f0-fc71-4c9c-838b-f3a5ce0706ff,cabf5871-d0d1-43aa-a1e0-7b054ea1f92a,ce83ec69-0901-4423-87f6-92734cc8feb2,5538f94c-9d38-4c6c-ab29-0987d27ec313,1f2a78f5-deae-438d-be76-6d733a7dac87",
339c1526-9b86-407a-8b5c-6ed4c7bf7064,Linda Davis,linda.davis@example.com,1971-03-08,506 Walnut St,, Greenville, IL,,"d3d06262-f539-4a05-9e71-6e6113e9529b,efbed11c-6828-4d9a-bdc3-ffadce27497e,ab3572a8-144f-4148-9862-465bd9d7148b",378c5576-5c56-4e44-8e49-be6a7401db37
5b10bfd7-62bf-4f7a-b660-b881ddc1deb3,Jane Doe,jane.doe@example.com,1989-02-15,653 Cedar St,, Fairview, OH,,"d3d06262-f539-4a05-9e71-6e6113e9529b,19a8bee2-7566-411a-9919-61d44ccc81ef,9dd4dfda-b0d2-4d4a-8642-a44db00f4a15,1e0ce7f9-cbf4-44c4-bfb7-725db39d17ea,efbed11c-6828-4d9a-bdc3-ffadce27497e,e4aa68ec-6374-48d4-a36d-8ca39ac807a2,534a2149-3015-472c-9de1-5db9e0f6b43e,dda17862-a51d-49f5-bc9f-b2caa7af10ef,ab3572a8-144f-4148-9862-465bd9d7148b,058ec2ea-9361-4a0a-a0b1-c81e99f2349a,fe8da200-3e6c-4017-983e-19b5aff7e800,551cfc0c-5de9-4672-90a2-b0f5b644ed8c",
50f27b10-2c31-4b52-b0fb-ec3017b33c12,James Wilson,james.wilson@example.com,1978-02-08,352 Cedar St,, Greenville, NY,,,7978a876-3872-4aa9-b08d-dfd1b2399832
bd408b63-be60-4eef-93b2-4334d20144fd,Alice Miller,alice.miller@example.com,1988-01-07,102 Oak St,, Springfield, OH,,"4fc222e3-9728-408a-b24b-171c919f81ea,37979873-7c28-4b44-83ee-438c3e6810e9,f66e3050-2b7f-4d30-bc1e-f1c26d6a2aa2,49150744-aac2-44f9-8ca0-05ae90757bac,7f5bc724-d171-406e-bf3b-cd9d868174f2,e988d274-0abb-4d30-86fd-65f7e0f6b057,16f85a4c-9e5b-4f05-ac70-25acb3032c48,f5b20856-42b4-48bd-93d9-fbe2712c9e55,b32c172c-a1d5-4cc9-a1fc-f5f4b2365ea4,cc5f8133-74b9-43cc-b15e-b159a78b93fd,d25284f4-c84e-48db-b41e-dc42085a55f9",
6a064f14-b3c5-4a5c-beed-7d721cd3918c,Jane Moore,jane.moore@example.com,1951-12-16,563 Walnut St,, Georgetown, CA,,"dda33b53-0fff-4371-8a45-35a2192e86e8,f6cf2da9-277c-4780-8c18-2a4727d35f64,f66e3050-2b7f-4d30-bc1e-f1c26d6a2aa2,3100982d-c037-4a3f-a3ed-83e66b248c8d,34c2e9da-d62c-4fdd-ad94-7befd2595222,af428f7f-7d22-4949-924b-37b9c13140fb,16f85a4c-9e5b-4f05-ac70-25acb3032c48,ebbcecbe-be84-4fb4-bb4e-6420356ebe5a,9e9ca12c-4178-40b5-a715-f166244e3adb,d2d40201-0152-4e55-bf95-406c1f66295b,d25284f4-c84e-48db-b41e-dc42085a55f9",
8086c811-84be-43f2-8fb7-52660bb63b1e,David Williams,david.williams@example.com,1988-08-21,232 Birch St,, Georgetown, PA,,"bcf5b4b8-c773-40a4-9ec1-9767753c0d44,8402b4cd-a049-4ae7-8649-16af0c4c8c62,3100982d-c037-4a3f-a3ed-83e66b248c8d,92ba9844-0c5e-4bfa-ad1c-ab41f8ac3d5e,52e4d490-31bd-48ea-ab9b-8f9eaf720b12,ebbcecbe-be84-4fb4-bb4e-6420356ebe5a",
f2546444-d125-4d07-8382-437b4e81eb12,Linda Johnson,linda.johnson@example.com,1961-08-15,907 Pine St,, Riverside, OH,,"c782f52b-d7ac-47f5-836a-376e4fccf31f,8402b4cd-a049-4ae7-8649-16af0c4c8c62,2c6e4248-da4d-4cb3-ac58-3cd04aa203fa,cabf5871-d0d1-43aa-a1e0-7b054ea1f92a,52e4d490-31bd-48ea-ab9b-8f9eaf720b12,c8e9582b-d7bd-48cb-9cab-9f953712e952,1f2a78f5-deae-438d-be76-6d733a7dac87",
98c695fe-e802-4df1-9739-285c0e475e5a,David Doe,david.doe@example.com,1992-09-08,251 Birch St,, Salem, PA,,"6b796d48-625b-4acf-96db-141d2e7d7b4b,e6f83c77-1538-4fec-934c-6a4ec6617268",b81f7bc9-90f6-4185-ab50-e2c0699e90df
61542117-751f-4382-8e6f-b2ad7f4c17f2,John Johnson,john.johnson@example.com,1982-09-17,673 Pine St,, Fairview, IL,,"d3d06262-f539-4a05-9e71-6e6113e9529b,dda33b53-0fff-4371-8a45-35a2192e86e8,e00c66ff-cb22-45b1-a5e8-8b3cde249016,efbed11c-6828-4d9a-bdc3-ffadce27497e,34c2e9da-d62c-4fdd-ad94-7befd2595222,9a1dc165-a7e3-4d94-96b3-aed7943cd257,ab3572a8-144f-4148-9862-465bd9d7148b,9e9ca12c-4178-40b5-a715-f166244e3adb",
723a2264-1065-4651-ab25-78e5319211f8,Emily Miller,emily.miller@example.com,1972-12-09,169 Elm St,, Riverside, FL,,"b33ae65d-523e-48c6-b10e-59346e1c6523,8402b4cd-a049-4ae7-8649-16af0c4c8c62,4ff85e34-9da3-47f2-beee-ec6175d82186,4e64e115-2f29-4046-95c6-3f34c14feb83,52e4d490-31bd-48ea-ab9b-8f9eaf720b12,450d53ce-7643-41e5-9d0d-b9d1eacead36,2ab329ca-9f50-4c70-9698-f44934cf4b69",
a8c2c000-620a-4d13-b4a4-29027cb4bfe3,Bob Wilson,bob.wilson@example.com,1997-12-21,139 Cedar St,, Salem, CA,,,
82f03452-4d79-4b76-9a1c-7040dfcec253,David Wilson,david.wilson@example.com,1992-10-03,151 Walnut St,, Fairview, FL,,"edca0a28-476b-4782-86be-a06806d87ab8,5d92edf2-5248-4363-8e50-f18ad6a67a8c,2c6e4248-da4d-4cb3-ac58-3cd04aa203fa,3100982d-c037-4a3f-a3ed-83e66b248c8d,cb7207d7-79d6-497f-a7e6-ceebd62576db,b12e86e4-dc4d-49cb-8ec3-b0c9f7f23b26,b6f11273-e674-4c30-afa1-7ee62c1abb4b,c8e9582b-d7bd-48cb-9cab-9f953712e952,ebbcecbe-be84-4fb4-bb4e-6420356ebe5a,bc618e46-adeb-4bfa-a8dc-9e7a3bbad058,62f9fcfb-92d6-4bc8-96ff-e8847c7b27ae",1181ac83-1fdb-4e18-b42f-a44b360a1e67
672eb3b9-7243-4766-ad24-9144a1a1d3be,Bob Brown,bob.brown@example.com,1992-06-22,722 Birch St,, Fairview, CA,,"19a8bee2-7566-411a-9919-61d44ccc81ef,ad1e7d8e-5114-413f-921d-a35552003ee4,c782f52b-d7ac-47f5-836a-376e4fccf31f,e4aa68ec-6374-48d4-a36d-8ca39ac807a2,c132b04e-83bd-4b24-8fe4-5a9a015e7c93,cabf5871-d0d1-43aa-a1e0-7b054ea1f92a,058ec2ea-9361-4a0a-a0b1-c81e99f2349a,1e0b04ba-18d5-4ab9-a1e5-23449bbc4a0b,1f2a78f5-deae-438d-be76-6d733a7dac87",
b2c720fe-b6c5-4670-bd8e-6d0fa78c0656,Alice Moore,alice.moore@example.com,1960-02-11,329 Oak St,, Springfield, NY,,"dda33b53-0fff-4371-8a45-35a2192e86e8,2390b2fb-f180-48d3-989d-5e359fdf867c,bcf5b4b8-c773-40a4-9ec1-9767753c0d44,9cbfac3c-fb8a-4ebd-b677-c223a57ac329,34c2e9da-d62c-4fdd-ad94-7befd2595222,febd48e5-fa29-4288-94cf-a257e875bbc5,92ba9844-0c5e-4bfa-ad1c-ab41f8ac3d5e,d464054e-8f96-4d3d-b9d5-a40f34507b88,9e9ca12c-4178-40b5-a715-f166244e3adb,a680ecae-78a0-4d78-88cd-4f0163e7d4da",
0062654f-b7f9-4056-8c5b-3ef5726f5cd9,James Miller,james.miller@example.com,1972-03-15,573 Cedar St,, Madison, PA,,"b33ae65d-523e-48c6-b10e-59346e1c6523,5d92edf2-5248-4363-8e50-f18ad6a67a8c,4ff85e34-9da3-47f2-beee-ec6175d82186,4e64e115-2f29-4046-95c6-3f34c14feb83,b6f11273-e674-4c30-afa1-7ee62c1abb4b,450d53ce-7643-41e5-9d0d-b9d1eacead36,2ab329ca-9f50-4c70-9698-f44934cf4b69",1d8eb8d8-5029-4fb4-a85f-004215e8333d
6c118356-92d8-4773-95ea-72df0fb7c4b6,Alice Johnson,alice.johnson@example.com,1952-01-15,122 Elm St,, Riverside, IL,,"3c0ebd74-4105-4532-a321-39bc3d6ab3d8,dda33b53-0fff-4371-8a45-35a2192e86e8,4fc222e3-9728-408a-b24b-171c919f81ea,c782f52b-d7ac-47f5-836a-376e4fccf31f,39af2a17-08ce-4282-8dd0-de4efe79980f,eac5b480-7e00-4d5e-add6-fc915fb2e8be,34c2e9da-d62c-4fdd-ad94-7befd2595222,7f5bc724-d171-406e-bf3b-cd9d868174f2,cabf5871-d0d1-43aa-a1e0-7b054ea1f92a,ce83ec69-0901-4423-87f6-92734cc8feb2,32a60bdd-f493-4c44-a9e2-e45c0209be5e,9e9ca12c-4178-40b5-a715-f166244e3adb,b32c172c-a1d5-4cc9-a1fc-f5f4b2365ea4,1f2a78f5-deae-438d-be76-6d733a7dac87",
34669942-871e-4c50-a47b-ad8ffa65a4c7,Michael Johnson,michael.johnson@example.com,1978-05-14,352 Walnut St,, Riverside, PA,,"2c4e188e-85c2-4366-b282-d70974be0631,4fc222e3-9728-408a-b24b-171c919f81ea,37979873-7c28-4b44-83ee-438c3e6810e9,3100982d-c037-4a3f-a3ed-83e66b248c8d,4ff85e34-9da3-47f2-beee-ec6175d82186,d02446db-85a5-472f-be66-392204bff177,7f5bc724-d171-406e-bf3b-cd9d868174f2,e988d274-0abb-4d30-86fd-65f7e0f6b057,ebbcecbe-be84-4fb4-bb4e-6420356ebe5a,450d53ce-7643-41e5-9d0d-b9d1eacead36,e2e80629-cfb6-4daa-b56c-6795ccdc4e48,b32c172c-a1d5-4cc9-a1fc-f5f4b2365ea4,cc5f8133-74b9-43cc-b15e-b159a78b93fd",
18c46803-1a4a-40b4-bccb-66b9c1149108,James Johnson,james.johnson@example.com,2000-12-09,278 Walnut St,, Salem, CA,,,
e8ad3aab-24dd-4d31-ab59-ed4374eb68fc,James Smith,james.smith@example.com,1990-01-22,720 Walnut St,, Georgetown, TX,,"3c0ebd74-4105-4532-a321-39bc3d6ab3d8,f66e3050-2b7f-4d30-bc1e-f1c26d6a2aa2,49f57722-52fb-47b6-8e1e-54de177e0d19,6b796d48-625b-4acf-96db-141d2e7d7b4b,eac5b480-7e00-4d5e-add6-fc915fb2e8be,16f85a4c-9e5b-4f05-ac70-25acb3032c48,f89ddd78-e74e-469c-8808-241bd8c36f67,e6f83c77-1538-4fec-934c-6a4ec6617268,32a60bdd-f493-4c44-a9e2-e45c0209be5e,d25284f4-c84e-48db-b41e-dc42085a55f9,c6f0e3ea-fc4a-4768-a155-f0bf0b943717",57d37ce6-9639-481b-a8a2-3c750e1bd712
eddbd1bb-485f-43a2-8ea3-b1f8e405c273,Jane Miller,jane.miller@example.com,1978-07-01,632 Walnut St,, Springfield, IL,,"19a8bee2-7566-411a-9919-61d44ccc81ef,38b9874d-dd51-433a-bea9-2ef3ec79cb21,4fc222e3-9728-408a-b24b-171c919f81ea,edca0a28-476b-4782-86be-a06806d87ab8,e4aa68ec-6374-48d4-a36d-8ca39ac807a2,e3ae6951-0a5b-40c4-8b20-fd8b9ce4cecf,7f5bc724-d171-406e-bf3b-cd9d868174f2,b12e86e4-dc4d-49cb-8ec3-b0c9f7f23b26,058ec2ea-9361-4a0a-a0b1-c81e99f2349a,4ad06de7-beaf-454c-aeda-59316f4a641c,b32c172c-a1d5-4cc9-a1fc-f5f4b2365ea4,62f9fcfb-92d6-4bc8-96ff-e8847c7b27ae",ea248782-1d52-4ae4-b1f5-39434757e350
077ff601-fbf4-429c-94ea-ae4f266a0273,Sarah Taylor,sarah.taylor@example.com,1961-06-22,104 Cedar St,, Greenville, PA,,"dda33b53-0fff-4371-8a45-35a2192e86e8,f6cf2da9-277c-4780-8c18-2a4727d35f64,521b6a84-52f2-488c-b310-c95ae8ff1021,34c2e9da-d62c-4fdd-ad94-7befd2595222,af428f7f-7d22-4949-924b-37b9c13140fb,15603f87-6ae3-403c-aad6-3cd82bdddc1e,9e9ca12c-4178-40b5-a715-f166244e3adb,d2d40201-0152-4e55-bf95-406c1f66295b",
5afe5ece-24ca-4ad4-94a5-9c0951779e62,James Brown,james.brown@example.com,1996-07-25,193 Cedar St,, Greenville, IL,,"b33ae65d-523e-48c6-b10e-59346e1c6523,9cbfac3c-fb8a-4ebd-b677-c223a57ac329,4e64e115-2f29-4046-95c6-3f34c14feb83,d464054e-8f96-4d3d-b9d5-a40f34507b88,2ab329ca-9f50-4c70-9698-f44934cf4b69",
b6385e80-a3fc-4713-86a3-7f84a29a3156,Bob Johnson,bob.johnson@example.com,1973-01-24,230 Spruce St,, Salem, CA,,"f66e3050-2b7f-4d30-bc1e-f1c26d6a2aa2,4ff85e34-9da3-47f2-beee-ec6175d82186,16f85a4c-9e5b-4f05-ac70-25acb3032c48,450d53ce-7643-41e5-9d0d-b9d1eacead36,d25284f4-c84e-48db-b41e-dc42085a55f9",9a90a3f6-d6b4-432b-b6b7-57e48c53070b
891821f2-b6cf-4eb3-81f4-dc361a394f3a,Bob Davis,bob.davis@example.com,1956-06-03,136 Pine St,, Georgetown, IL,,"cb7207d7-79d6-497f-a7e6-ceebd62576db,6b796d48-625b-4acf-96db-141d2e7d7b4b,bc618e46-adeb-4bfa-a8dc-9e7a3bbad058,e6f83c77-1538-4fec-934c-6a4ec6617268",b59f9884-110e-4a16-8d2f-5bf416365bc9
7d71ab56-4b4a-4764-a432-c6c5c16b2488,David Smith,david.smith@example.com,1983-07-28,936 Oak St,, Springfield, FL,,"2c6e4248-da4d-4cb3-ac58-3cd04aa203fa,c8e9582b-d7bd-48cb-9cab-9f953712e952",2e5c0901-195f-4a3c-80ff-fc39e346e41e
c47e5c81-4438-42ef-b883-0c6873e0fb38,James Doe,james.doe@example.com,1976-09-12,687 Walnut St,, Riverside, PA,,"b33ae65d-523e-48c6-b10e-59346e1c6523,dda33b53-0fff-4371-8a45-35a2192e86e8,37b765f0-fc71-4c9c-838b-f3a5ce0706ff,4e64e115-2f29-4046-95c6-3f34c14feb83,34c2e9da-d62c-4fdd-ad94-7befd2595222,5538f94c-9d38-4c6c-ab29-0987d27ec313,2ab329ca-9f50-4c70-9698-f44934cf4b69,9e9ca12c-4178-40b5-a715-f166244e3adb",
3e0fe6cb-9092-4729-bae6-ab2547203e82,Linda Moore,linda.moore@example.com,1979-09-27,273 Elm St,, Greenville, OH,,"4d0b9e50-43d1-4da0-af2b-97d510bab9e2,1e0ce7f9-cbf4-44c4-bfb7-725db39d17ea,fa7f1f45-106f-4e8d-bd8c-cce0fd276256,049d0ea9-2055-46a4-b821-0cbf6e36e4d5,dda17862-a51d-49f5-bc9f-b2caa7af10ef,9630ccdb-1fb5-411d-a129-562993ba0569,37b5c1f9-c15a-4947-b64d-025dc64c5241,551cfc0c-5de9-4672-90a2-b0f5b644ed8c",
3f33b31e-b2b8-40e0-9f35-142548ed5189,Michael Miller,michael.miller@example.com,1962-02-09,583 Elm St,, Salem, PA,,"1e0ce7f9-cbf4-44c4-bfb7-725db39d17ea,ad1e7d8e-5114-413f-921d-a35552003ee4,f66e3050-2b7f-4d30-bc1e-f1c26d6a2aa2,dda17862-a51d-49f5-bc9f-b2caa7af10ef,c132b04e-83bd-4b24-8fe4-5a9a015e7c93,16f85a4c-9e5b-4f05-ac70-25acb3032c48,551cfc0c-5de9-4672-90a2-b0f5b644ed8c,1e0b04ba-18d5-4ab9-a1e5-23449bbc4a0b,d25284f4-c84e-48db-b41e-dc42085a55f9",
5277af22-3b20-4316-9aa2-06d32bb7e1b5,Michael Doe,michael.doe@example.com,1964-08-27,649 Spruce St,, Madison, IL,,"12c5d420-9bbc-455d-9794-7780bc5fea5b,2390b2fb-f180-48d3-989d-5e359fdf867c,9cbfac3c-fb8a-4ebd-b677-c223a57ac329,036ab592-da37-4aac-ac4b-3a2eb132eb76,febd48e5-fa29-4288-94cf-a257e875bbc5,d464054e-8f96-4d3d-b9d5-a40f34507b88,91d3ffda-02df-4108-a302-e3764e021ccf,a680ecae-78a0-4d78-88cd-4f0163e7d4da",5d7e8a45-3416-448c-9352-918f1bc4831c
dab29567-062b-4544-bd95-cd3808184408,Emily Johnson,emily.johnson@example.com,1962-05-25,230 Pine St,, Fairview, NY,,"9dd4dfda-b0d2-4d4a-8642-a44db00f4a15,2390b2fb-f180-48d3-989d-5e359fdf867c,9cbfac3c-fb8a-4ebd-b677-c223a57ac329,534a2149-3015-472c-9de1-5db9e0f6b43e,febd48e5-fa29-4288-94cf-a257e875bbc5,d464054e-8f96-4d3d-b9d5-a40f34507b88,fe8da200-3e6c-4017-983e-19b5aff7e800,a680ecae-78a0-4d78-88cd-4f0163e7d4da",525c9c0b-f649-4886-a9c7-a94f51593f0b
6f4fc7cd-690b-41b2-83b2-48e5f067f250,Alice Smith,alice.smith@example.com,1960-12-14,413 Birch St,, Georgetown, CA,,"b33ae65d-523e-48c6-b10e-59346e1c6523,2c4e188e-85c2-4366-b282-d70974be0631,f6cf2da9-277c-4780-8c18-2a4727d35f64,4e64e115-2f29-4046-95c6-3f34c14feb83,d02446db-85a5-472f-be66-392204bff177,af428f7f-7d22-4949-924b-37b9c13140fb,2ab329ca-9f50-4c70-9698-f44934cf4b69,e2e80629-cfb6-4daa-b56c-6795ccdc4e48,d2d40201-0152-4e55-bf95-406c1f66295b",0851e07e-e76e-4533-b8e2-62044212c4fe
cc459476-2743-4f18-9149-8b96fb507584,Alice Wilson,alice.wilson@example.com,1984-12-17,947 Spruce St,, Riverside, OH,,"38b9874d-dd51-433a-bea9-2ef3ec79cb21,2c4e188e-85c2-4366-b282-d70974be0631,1e0ce7f9-cbf4-44c4-bfb7-725db39d17ea,ad1e7d8e-5114-413f-921d-a35552003ee4,fa7f1f45-106f-4e8d-bd8c-cce0fd276256,e3ae6951-0a5b-40c4-8b20-fd8b9ce4cecf,d02446db-85a5-472f-be66-392204bff177,dda17862-a51d-49f5-bc9f-b2caa7af10ef,c132b04e-83bd-4b24-8fe4-5a9a015e7c93,9630ccdb-1fb5-411d-a129-562993ba0569,4ad06de7-beaf-454c-aeda-59316f4a641c,e2e80629-cfb6-4daa-b56c-6795ccdc4e48,551cfc0c-5de9-4672-90a2-b0f5b644ed8c,1e0b04ba-18d5-4ab9-a1e5-23449bbc4a0b",cbecf776-f12b-4975-bb06-05972c74723b
439b90ed-d7ea-4256-a205-3ffac2f52b8b,Alice Taylor,alice.taylor@example.com,1962-02-25,793 Oak St,, Springfield, OH,,"4d0b9e50-43d1-4da0-af2b-97d510bab9e2,8402b4cd-a049-4ae7-8649-16af0c4c8c62,049d0ea9-2055-46a4-b821-0cbf6e36e4d5,52e4d490-31bd-48ea-ab9b-8f9eaf720b12,37b5c1f9-c15a-4947-b64d-025dc64c5241",2da151c6-c716-4324-9f5f-130db2b0fa3d
08779a04-1771-4c43-875a-7260f34ff122,Linda Williams,linda.williams@example.com,1966-11-14,876 Pine St,, Georgetown, FL,,"4d0b9e50-43d1-4da0-af2b-97d510bab9e2,049d0ea9-2055-46a4-b821-0cbf6e36e4d5,37b5c1f9-c15a-4947-b64d-025dc64c5241",7b7b2b22-c12f-49ad-973a-fa07bbfb8174
50e287da-ad3a-4ad2-b6d9-af2151980511,Alice Brown,alice.brown@example.com,1964-04-06,955 Cedar St,, Fairview, IL,,"12c5d420-9bbc-455d-9794-7780bc5fea5b,9dd4dfda-b0d2-4d4a-8642-a44db00f4a15,036ab592-da37-4aac-ac4b-3a2eb132eb76,534a2149-3015-472c-9de1-5db9e0f6b43e,91d3ffda-02df-4108-a302-e3764e021ccf,fe8da200-3e6c-4017-983e-19b5aff7e800",d2897207-c5ad-4fd4-bbe7-9af2dbd6621f
c41e0adf-e5d4-441e-bba3-ab3eb01c4645,John Doe,john.doe@example.com,2000-03-17,130 Birch St,, Springfield, FL,,"2c4e188e-85c2-4366-b282-d70974be0631,f66e3050-2b7f-4d30-bc1e-f1c26d6a2aa2,3100982d-c037-4a3f-a3ed-83e66b248c8d,d02446db-85a5-472f-be66-392204bff177,16f85a4c-9e5b-4f05-ac70-25acb3032c48,ebbcecbe-be84-4fb4-bb4e-6420356ebe5a,e2e80629-cfb6-4daa-b56c-6795ccdc4e48,d25284f4-c84e-48db-b41e-dc42085a55f9",79c08775-d745-49fd-975d-edf8628debc5
8dcda979-71d2-4a12-b846-cb1a575bcb24,Jane Williams,jane.williams@example.com,1964-04-23,754 Birch St,, Georgetown, PA,,,
5963eba5-d6da-4298-bb22-4e118b96f26b,Bob Miller,bob.miller@example.com,1962-03-19,394 Oak St,, Riverside, NY,,,3a0fafc3-3834-4d74-ad24-890c903a8864
60d6e703-3d14-47f1-b682-f7d59489c5aa,Emily Smith,emily.smith@example.com,1988-06-10,648 Spruce St,, Riverside, FL,,"9dd4dfda-b0d2-4d4a-8642-a44db00f4a15,534a2149-3015-472c-9de1-5db9e0f6b43e,fe8da200-3e6c-4017-983e-19b5aff7e800",2116a2c8-4fb3-435a-ad11-3cb5bc9a3baa
96205bfa-34df-4644-af35-50f404373030,Emily Doe,emily.doe@example.com,1962-01-16,447 Maple St,, Riverside, CA,,"b33ae65d-523e-48c6-b10e-59346e1c6523,38b9874d-dd51-433a-bea9-2ef3ec79cb21,49f57722-52fb-47b6-8e1e-54de177e0d19,4e64e115-2f29-4046-95c6-3f34c14feb83,e3ae6951-0a5b-40c4-8b20-fd8b9ce4cecf,f89ddd78-e74e-469c-8808-241bd8c36f67,2ab329ca-9f50-4c70-9698-f44934cf4b69,4ad06de7-beaf-454c-aeda-59316f4a641c,c6f0e3ea-fc4a-4768-a155-f0bf0b943717",
4c8c340b-aca5-4013-a702-b936b6e8f663,Jane Smith,jane.smith@example.com,1995-10-06,759 Cedar St,, Springfield, NY,,"9dd4dfda-b0d2-4d4a-8642-a44db00f4a15,4fc222e3-9728-408a-b24b-171c919f81ea,ad1e7d8e-5114-413f-921d-a35552003ee4,c782f52b-d7ac-47f5-836a-376e4fccf31f,39af2a17-08ce-4282-8dd0-de4efe79980f,534a2149-3015-472c-9de1-5db9e0f6b43e,7f5bc724-d171-406e-bf3b-cd9d868174f2,c132b04e-83bd-4b24-8fe4-5a9a015e7c93,cabf5871-d0d1-43aa-a1e0-7b054ea1f92a,ce83ec69-0901-4423-87f6-92734cc8feb2,fe8da200-3e6c-4017-983e-19b5aff7e800,b32c172c-a1d5-4cc9-a1fc-f5f4b2365ea4,1e0b04ba-18d5-4ab9-a1e5-23449bbc4a0b,1f2a78f5-deae-438d-be76-6d733a7dac87",
c08be963-2753-422c-8dfc-6ae00d248777,Michael Wilson,michael.wilson@example.com,1965-08-05,181 Walnut St,, Georgetown, NY,,"3c0ebd74-4105-4532-a321-39bc3d6ab3d8,2390b2fb-f180-48d3-989d-5e359fdf867c,49f57722-52fb-47b6-8e1e-54de177e0d19,eac5b480-7e00-4d5e-add6-fc915fb2e8be,febd48e5-fa29-4288-94cf-a257e875bbc5,f89ddd78-e74e-469c-8808-241bd8c36f67,32a60bdd-f493-4c44-a9e2-e45c0209be5e,a680ecae-78a0-4d78-88cd-4f0163e7d4da,c6f0e3ea-fc4a-4768-a155-f0bf0b943717",
1838a5b6-db38-4111-ab13-794b8ecb1129,David Moore,david.moore@example.com,1983-02-14,760 Birch St,, Fairview, PA,,,
676eb082-9298-44a3-bdf4-af43ba8ad72f,Linda Miller,linda.miller@example.com,1963-05-13,507 Elm St,, Salem, IL,,"37979873-7c28-4b44-83ee-438c3e6810e9,e988d274-0abb-4d30-86fd-65f7e0f6b057,cc5f8133-74b9-43cc-b15e-b159a78b93fd",cf3c19ee-137f-4213-bba8-528f857ed1c2
7a34acc6-7e9d-4a48-8cde-2e89e4e36b28,Linda Smith,linda.smith@example.com,1990-01-17,588 Oak St,, Fairview, NY,,"f6cf2da9-277c-4780-8c18-2a4727d35f64,521b6a84-52f2-488c-b310-c95ae8ff1021,af428f7f-7d22-4949-924b-37b9c13140fb,15603f87-6ae3-403c-aad6-3cd82bdddc1e,d2d40201-0152-4e55-bf95-406c1f66295b",7d97f50c-65c4-4c86-a436-5e9d2fc5c2ff
ef47e5c7-7c98-4416-9ce0-c6c9d82001cf,Sarah Williams,sarah.williams@example.com,1978-03-25,830 Birch St,, Fairview, NY,,"2c6e4248-da4d-4cb3-ac58-3cd04aa203fa,3100982d-c037-4a3f-a3ed-83e66b248c8d,c8e9582b-d7bd-48cb-9cab-9f953712e952,ebbcecbe-be84-4fb4-bb4e-6420356ebe5a",
2045e65b-0845-4d48-88f3-19c708a836cf,Michael Davis,michael.davis@example.com,1991-04-24,462 Walnut St,, Madison, IL,,"12c5d420-9bbc-455d-9794-7780bc5fea5b,2c4e188e-85c2-4366-b282-d70974be0631,dda33b53-0fff-4371-8a45-35a2192e86e8,036ab592-da37-4aac-ac4b-3a2eb132eb76,d02446db-85a5-472f-be66-392204bff177,34c2e9da-d62c-4fdd-ad94-7befd2595222,91d3ffda-02df-4108-a302-e3764e021ccf,e2e80629-cfb6-4daa-b56c-6795ccdc4e48,9e9ca12c-4178-40b5-a715-f166244e3adb",
c4d33385-848f-42f6-843b-220fa0b0f8fc,Michael Williams,michael.williams@example.com,1994-08-08,847 Walnut St,, Madison, TX,,"e0bad25d-7fb1-4dd7-a0e8-a11b41dcd281,fa7f1f45-106f-4e8d-bd8c-cce0fd276256,5e03ed8a-d9fb-4271-aa1d-73df523dcc57,9630ccdb-1fb5-411d-a129-562993ba0569",3a0cd40a-bd21-4359-9b36-c4bf30380f9b
c4a82bb0-ba9d-446f-a121-ba7d2996c39e,Jane Taylor,jane.taylor@example.com,1955-05-29,766 Cedar St,, Madison, FL,,"b33ae65d-523e-48c6-b10e-59346e1c6523,dda33b53-0fff-4371-8a45-35a2192e86e8,edca0a28-476b-4782-86be-a06806d87ab8,521b6a84-52f2-488c-b310-c95ae8ff1021,4e64e115-2f29-4046-95c6-3f34c14feb83,34c2e9da-d62c-4fdd-ad94-7befd2595222,b12e86e4-dc4d-49cb-8ec3-b0c9f7f23b26,15603f87-6ae3-403c-aad6-3cd82bdddc1e,2ab329ca-9f50-4c70-9698-f44934cf4b69,9e9ca12c-4178-40b5-a715-f166244e3adb,62f9fcfb-92d6-4bc8-96ff-e8847c7b27ae",
0a10e180-a33a-4d04-8519-ae951f56b478,Sarah Johnson,sarah.johnson@example.com,1999-12-18,719 Maple St,, Madison, CA,,"b33ae65d-523e-48c6-b10e-59346e1c6523,9dd4dfda-b0d2-4d4a-8642-a44db00f4a15,38b9874d-dd51-433a-bea9-2ef3ec79cb21,f6cf2da9-277c-4780-8c18-2a4727d35f64,8402b4cd-a049-4ae7-8649-16af0c4c8c62,4e64e115-2f29-4046-95c6-3f34c14feb83,534a2149-3015-472c-9de1-5db9e0f6b43e,e3ae6951-0a5b-40c4-8b20-fd8b9ce4cecf,af428f7f-7d22-4949-924b-37b9c13140fb,52e4d490-31bd-48ea-ab9b-8f9eaf720b12,2ab329ca-9f50-4c70-9698-f44934cf4b69,fe8da200-3e6c-4017-983e-19b5aff7e800,4ad06de7-beaf-454c-aeda-59316f4a641c,d2d40201-0152-4e55-bf95-406c1f66295b",
57101157-bd0a-4615-8778-df69fe8360c6,Sarah Miller,sarah.miller@example.com,1950-06-24,710 Elm St,, Riverside, OH,,"4d0b9e50-43d1-4da0-af2b-97d510bab9e2,049d0ea9-2055-46a4-b821-0cbf6e36e4d5,37b5c1f9-c15a-4947-b64d-025dc64c5241",
